{
"type": "FeatureCollection",
"name": "flooded_2047",
"crs": { "type": "name", "properties": { "name": "urn:ogc:def:crs:OGC:1.3:CRS84" } },
"features": [
{ "type": "Feature", "properties": { "year": 2047, "layer": "flooded" }, "geometry": { "type": "Polygon", "coordinates": [ [ [ 110.537578757875792, -6.75 ], [ 110.537653765376533, -6.751125112511255 ], [ 110.53825382538254, -6.752625262526246 ], [ 110.540579057905802, -6.754275427542761 ], [ 110.541029102910286, -6.754275427542747 ], [ 110.541404140414045, -6.753975397539746 ], [ 110.541854185418543, -6.753375337533748 ], [ 110.541854185418543, -6.753000300030007 ], [ 110.540129012901289, -6.75 ], [ 110.541779177917789, -6.753150315031496 ], [ 110.540954095409546, -6.754200420042006 ], [ 110.538328832883295, -6.752550255025498 ], [ 110.537578757875792, -6.75 ] ] ] } },
{ "type": "Feature", "properties": { "year": 2047, "layer": "flooded" }, "geometry": { "type": "Polygon", "coordinates": [ [ [ 110.540504050405048, -6.75 ], [ 110.541704170417049, -6.752700270027002 ], [ 110.546204620462063, -6.757575757575755 ], [ 110.554380438043808, -6.759150915091516 ], [ 110.556030603060307, -6.759075907590756 ], [ 110.555805580558072, -6.758475847584766 ], [ 110.553855385538554, -6.758550855085504 ], [ 110.555355535553559, -6.758250825082512 ], [ 110.554755475547552, -6.75712571257125 ], [ 110.553030303030297, -6.757125712571262 ], [ 110.552580258025799, -6.758400840084012 ], [ 110.551005100510054, -6.756075607560754 ], [ 110.550405040504046, -6.7558505850585 ], [ 110.552805280528062, -6.758700870087008 ], [ 110.54627962796279, -6.757500750075 ], [ 110.540504050405048, -6.75 ] ], [ [ 110.553255325532547, -6.757200720072002 ], [ 110.554755475547552, -6.757350735073513 ], [ 110.554980498049801, -6.757875787578752 ], [ 110.553555355535551, -6.758100810081009 ], [ 110.553255325532547, -6.757200720072002 ] ], [ [ 110.553405340534056, -6.758625862586258 ], [ 110.55370537053706, -6.758400840084008 ], [ 110.55370537053706, -6.758700870087012 ], [ 110.553405340534056, -6.758625862586258 ] ], [ [ 110.555355535553559, -6.758850885088513 ], [ 110.555805580558072, -6.758700870087019 ], [ 110.555805580558072, -6.758850885088505 ], [ 110.555355535553559, -6.758850885088513 ] ], [ [ 110.554605460546057, -6.75900090009001 ], [ 110.554905490549061, -6.758850885088514 ], [ 110.554980498049801, -6.759000900090014 ], [ 110.554605460546057, -6.75900090009001 ] ] ] } },
{ "type": "Feature", "properties": { "year": 2047, "layer": "flooded" }, "geometry": { "type": "Polygon", "coordinates": [ [ [ 110.562106210621067, -6.75 ], [ 110.559780978097805, -6.751950195019496 ], [ 110.560531053105308, -6.752925292529257 ], [ 110.558355835583555, -6.753075307530759 ], [ 110.558730873087313, -6.754950495049498 ], [ 110.556930693069305, -6.753900390038998 ], [ 110.556255625562557, -6.754650465046497 ], [ 110.556480648064806, -6.755100510051001 ], [ 110.558280828082815, -6.755400540054008 ], [ 110.559555955595556, -6.754425442544253 ], [ 110.559555955595556, -6.753225322532258 ], [ 110.560456045604568, -6.75427542754276 ], [ 110.561131113111315, -6.753900390038995 ], [ 110.561431143114305, -6.75247524752476 ], [ 110.56150615061506, -6.75382538253826 ], [ 110.560981098109806, -6.754575457545755 ], [ 110.561731173117323, -6.75547554755475 ], [ 110.55985598559856, -6.755550555055509 ], [ 110.558955895589563, -6.756300630063015 ], [ 110.561581158115814, -6.757200720072006 ], [ 110.56150615061506, -6.761326132613259 ], [ 110.564131413141311, -6.760801080108006 ], [ 110.56458145814581, -6.762601260126017 ], [ 110.56458145814581, -6.759750975097507 ], [ 110.567506750675065, -6.757575757575752 ], [ 110.56593159315932, -6.75600060006 ], [ 110.568781878187821, -6.752850285028493 ], [ 110.581908190819078, -6.750075007500755 ], [ 110.572982298229817, -6.75 ], [ 110.568706870687066, -6.752175217521756 ], [ 110.564506450645069, -6.756300630063005 ], [ 110.561881188118818, -6.757425742574259 ], [ 110.563381338133823, -6.756600660066 ], [ 110.561806180618063, -6.755775577557747 ], [ 110.562406240624057, -6.755025502550247 ], [ 110.564056405640585, -6.756150615061501 ], [ 110.566681668166822, -6.753150315031498 ], [ 110.562106210621067, -6.75 ] ], [ [ 110.574407440744068, -6.750375037503745 ], [ 110.57650765076508, -6.750300030002996 ], [ 110.574257425742573, -6.750525052505257 ], [ 110.574407440744068, -6.750375037503745 ] ], [ [ 110.573582358235825, -6.750600060005994 ], [ 110.574257425742573, -6.750525052505257 ], [ 110.574257425742573, -6.750600060006002 ], [ 110.573582358235825, -6.750600060005994 ] ], [ [ 110.572907290729077, -6.750675067506752 ], [ 110.573507350735071, -6.750600060006005 ], [ 110.573507350735071, -6.750675067506752 ], [ 110.572907290729077, -6.750675067506752 ] ], [ [ 110.560906090609066, -6.751800180017999 ], [ 110.561431143114305, -6.751500150015004 ], [ 110.56150615061506, -6.752100210021 ], [ 110.560906090609066, -6.751800180017999 ] ], [ [ 110.560156015601564, -6.753525352535259 ], [ 110.560981098109806, -6.75337533753375 ], [ 110.560606060606062, -6.754050405040494 ], [ 110.560156015601564, -6.753525352535259 ] ], [ [ 110.560081008100823, -6.753225322532248 ], [ 110.560231023102304, -6.753150315031508 ], [ 110.560231023102304, -6.753300330033005 ], [ 110.560081008100823, -6.753225322532248 ] ], [ [ 110.561731173117323, -6.754800480047999 ], [ 110.561731173117323, -6.754200420041998 ], [ 110.562256225622562, -6.754950495049509 ], [ 110.561731173117323, -6.754800480047999 ] ], [ [ 110.556630663066301, -6.754425442544253 ], [ 110.556930693069305, -6.754425442544255 ], [ 110.556630663066301, -6.754875487548764 ], [ 110.556630663066301, -6.754425442544253 ] ], [ [ 110.55985598559856, -6.755850585058501 ], [ 110.559930993099314, -6.755775577557765 ], [ 110.559930993099314, -6.755850585058504 ], [ 110.55985598559856, -6.755850585058501 ] ], [ [ 110.56150615061506, -6.756375637563764 ], [ 110.562481248124811, -6.756675667566762 ], [ 110.561731173117323, -6.756975697569764 ], [ 110.56150615061506, -6.756375637563764 ] ], [ [ 110.560681068106817, -6.756600660066002 ], [ 110.561056105610575, -6.756300630063015 ], [ 110.560981098109806, -6.756675667566753 ], [ 110.560681068106817, -6.756600660066002 ] ] ] } },
{ "type": "Feature", "properties": { "year": 2047, "layer": "flooded" }, "geometry": { "type": "Polygon", "coordinates": [ [ [ 110.542004200420038, -6.753600360036001 ], [ 110.540729072907297, -6.754725472547252 ], [ 110.540429042904293, -6.755550555055512 ], [ 110.541629162916294, -6.755550555055506 ], [ 110.541479147914785, -6.756675667566755 ], [ 110.54462946294629, -6.75892589258925 ], [ 110.541779177917789, -6.75547554755476 ], [ 110.540579057905802, -6.75547554755475 ], [ 110.542379237923797, -6.753825382538259 ], [ 110.545079507950788, -6.758850885088517 ], [ 110.545754575457551, -6.757875787578753 ], [ 110.548754875487546, -6.758775877587755 ], [ 110.547029702970292, -6.760351035103507 ], [ 110.549879987998793, -6.762301230123014 ], [ 110.553855385538554, -6.762076207620768 ], [ 110.552805280528062, -6.760051005100514 ], [ 110.550405040504046, -6.762076207620765 ], [ 110.551530153015307, -6.759975997599753 ], [ 110.550180018001797, -6.759150915091503 ], [ 110.554305430543053, -6.759825982598254 ], [ 110.554380438043808, -6.760651065106511 ], [ 110.560831083108312, -6.759000900090007 ], [ 110.558955895589563, -6.759975997599757 ], [ 110.557680768076807, -6.762226222622259 ], [ 110.559705970597065, -6.759825982598253 ], [ 110.559930993099314, -6.760726072607258 ], [ 110.560756075607557, -6.760426042604256 ], [ 110.560981098109806, -6.758775877587754 ], [ 110.555955595559553, -6.760051005100505 ], [ 110.54627962796279, -6.758025802580263 ], [ 110.542604260426046, -6.753900390039004 ], [ 110.542004200420038, -6.753600360036001 ] ], [ [ 110.543954395439542, -6.756075607560752 ], [ 110.544029402940296, -6.756000600060013 ], [ 110.544029402940296, -6.756075607560755 ], [ 110.543954395439542, -6.756075607560752 ] ], [ [ 110.544029402940296, -6.756150615061501 ], [ 110.544104410441051, -6.756075607560748 ], [ 110.544104410441051, -6.756150615061503 ], [ 110.544029402940296, -6.756150615061501 ] ], [ [ 110.544104410441051, -6.756225622562265 ], [ 110.544179417941791, -6.756150615061498 ], [ 110.544179417941791, -6.756225622562249 ], [ 110.544104410441051, -6.756225622562265 ] ], [ [ 110.544179417941791, -6.756300630063007 ], [ 110.544254425442546, -6.756225622562257 ], [ 110.544254425442546, -6.756300630063005 ], [ 110.544179417941791, -6.756300630063007 ] ], [ [ 110.545079507950788, -6.757350735073499 ], [ 110.544704470447044, -6.756450645064501 ], [ 110.545454545454547, -6.757575757575765 ], [ 110.545079507950788, -6.757350735073499 ] ], [ [ 110.549204920492045, -6.7600510051005 ], [ 110.5504800480048, -6.759975997599752 ], [ 110.550105010501056, -6.760651065106503 ], [ 110.549204920492045, -6.7600510051005 ] ], [ [ 110.559930993099314, -6.760351035103507 ], [ 110.560606060606062, -6.760051005100501 ], [ 110.560381038103813, -6.760501050105016 ], [ 110.559930993099314, -6.760351035103507 ] ], [ [ 110.549354935493554, -6.760726072607256 ], [ 110.549579957995803, -6.760576057605767 ], [ 110.549579957995803, -6.760801080108007 ], [ 110.549354935493554, -6.760726072607256 ] ], [ [ 110.549129912991305, -6.761026102610257 ], [ 110.549804980498052, -6.761476147614761 ], [ 110.54905490549055, -6.761551155115509 ], [ 110.549129912991305, -6.761026102610257 ] ], [ [ 110.551830183018296, -6.761776177617757 ], [ 110.552130213021314, -6.761926192619265 ], [ 110.551830183018296, -6.761926192619256 ], [ 110.551830183018296, -6.761776177617757 ] ] ] } }
]
}
