{
"type": "FeatureCollection",
"name": "flooded_2050",
"crs": { "type": "name", "properties": { "name": "urn:ogc:def:crs:OGC:1.3:CRS84" } },
"features": [
{ "type": "Feature", "properties": { "year": 2050, "layer": "flooded" }, "geometry": { "type": "Polygon", "coordinates": [ [ [ 110.537578757875792, -6.75 ], [ 110.537653765376533, -6.751125112511255 ], [ 110.53825382538254, -6.752625262526246 ], [ 110.540579057905802, -6.754275427542761 ], [ 110.541029102910286, -6.754275427542747 ], [ 110.541404140414045, -6.753975397539746 ], [ 110.541854185418543, -6.753375337533748 ], [ 110.541854185418543, -6.753000300030007 ], [ 110.540129012901289, -6.75 ], [ 110.541779177917789, -6.753150315031496 ], [ 110.540879087908792, -6.754200420042002 ], [ 110.538328832883295, -6.752550255025498 ], [ 110.537578757875792, -6.75 ] ] ] } },
{ "type": "Feature", "properties": { "year": 2050, "layer": "flooded" }, "geometry": { "type": "Polygon", "coordinates": [ [ [ 110.554755475547552, -6.756150615061498 ], [ 110.554230423042299, -6.756225622562253 ], [ 110.553630363036305, -6.755925592559255 ], [ 110.553405340534056, -6.756000600060003 ], [ 110.554005400540049, -6.756450645064502 ], [ 110.554755475547552, -6.756150615061498 ] ] ] } },
{ "type": "Feature", "properties": { "year": 2050, "layer": "flooded" }, "geometry": { "type": "Polygon", "coordinates": [ [ [ 110.540504050405048, -6.75 ], [ 110.541704170417049, -6.752700270027002 ], [ 110.546204620462063, -6.757575757575755 ], [ 110.554380438043808, -6.759150915091516 ], [ 110.556030603060307, -6.759075907590756 ], [ 110.555805580558072, -6.758475847584766 ], [ 110.553855385538554, -6.758550855085504 ], [ 110.555355535553559, -6.758250825082512 ], [ 110.554755475547552, -6.75712571257125 ], [ 110.553030303030297, -6.757125712571262 ], [ 110.552580258025799, -6.758400840084012 ], [ 110.551005100510054, -6.756075607560754 ], [ 110.550405040504046, -6.7558505850585 ], [ 110.552805280528062, -6.758700870087008 ], [ 110.54627962796279, -6.757500750075 ], [ 110.540504050405048, -6.75 ] ], [ [ 110.553255325532547, -6.757200720072002 ], [ 110.554755475547552, -6.757350735073513 ], [ 110.554905490549061, -6.75787578757875 ], [ 110.553555355535551, -6.758100810081009 ], [ 110.553255325532547, -6.757200720072002 ] ], [ [ 110.553405340534056, -6.758550855085508 ], [ 110.553630363036305, -6.758325832583257 ], [ 110.55370537053706, -6.75862586258626 ], [ 110.553405340534056, -6.758550855085508 ] ], [ [ 110.555355535553559, -6.758850885088513 ], [ 110.555730573057303, -6.758700870087008 ], [ 110.555805580558072, -6.758850885088505 ], [ 110.555355535553559, -6.758850885088513 ] ], [ [ 110.554680468046811, -6.759000900090005 ], [ 110.554905490549061, -6.758850885088514 ], [ 110.554980498049801, -6.759000900090014 ], [ 110.554680468046811, -6.759000900090005 ] ] ] } },
{ "type": "Feature", "properties": { "year": 2050, "layer": "flooded" }, "geometry": { "type": "Polygon", "coordinates": [ [ [ 110.562106210621067, -6.75 ], [ 110.559780978097805, -6.751950195019496 ], [ 110.560831083108312, -6.752475247524748 ], [ 110.560531053105308, -6.752925292529257 ], [ 110.558355835583555, -6.753075307530759 ], [ 110.559405940594061, -6.754200420042001 ], [ 110.558505850585064, -6.755100510050996 ], [ 110.556930693069305, -6.753900390038998 ], [ 110.556255625562557, -6.754650465046497 ], [ 110.556480648064806, -6.755100510051001 ], [ 110.558280828082815, -6.755400540054008 ], [ 110.559555955595556, -6.754425442544253 ], [ 110.559555955595556, -6.753225322532258 ], [ 110.560456045604568, -6.75427542754276 ], [ 110.561131113111315, -6.753900390038995 ], [ 110.561431143114305, -6.75247524752476 ], [ 110.56150615061506, -6.75382538253826 ], [ 110.560981098109806, -6.754575457545755 ], [ 110.561731173117323, -6.75547554755475 ], [ 110.558955895589563, -6.756300630063015 ], [ 110.561581158115814, -6.757200720072006 ], [ 110.56150615061506, -6.761326132613259 ], [ 110.564131413141311, -6.760801080108006 ], [ 110.56458145814581, -6.762601260126017 ], [ 110.56458145814581, -6.759825982598254 ], [ 110.566456645664573, -6.759000900090016 ], [ 110.566606660666068, -6.758475847584757 ], [ 110.56758175817582, -6.757950795079505 ], [ 110.567881788178823, -6.757350735073509 ], [ 110.56758175817582, -6.755475547554758 ], [ 110.567656765676574, -6.757275727572756 ], [ 110.567281728172816, -6.756150615061508 ], [ 110.567131713171321, -6.757200720072004 ], [ 110.566906690669072, -6.757425742574259 ], [ 110.56593159315932, -6.75600060006 ], [ 110.568856885688575, -6.752850285028495 ], [ 110.581908190819078, -6.750075007500755 ], [ 110.563906390639062, -6.75 ], [ 110.56458145814581, -6.750975097509748 ], [ 110.567206720672061, -6.75240024002401 ], [ 110.569006900690084, -6.750900090009008 ], [ 110.571407140714072, -6.750975097509746 ], [ 110.568631863186312, -6.752100210020994 ], [ 110.565106510651063, -6.755775577557765 ], [ 110.561881188118818, -6.757425742574259 ], [ 110.563456345634563, -6.756525652565256 ], [ 110.562481248124811, -6.755100510051001 ], [ 110.563606360636058, -6.756150615061506 ], [ 110.564131413141311, -6.756150615061499 ], [ 110.566756675667563, -6.753150315031502 ], [ 110.562106210621067, -6.75 ] ], [ [ 110.574482448244822, -6.75037503750375 ], [ 110.57650765076508, -6.750300030002996 ], [ 110.574257425742573, -6.750525052505257 ], [ 110.574482448244822, -6.75037503750375 ] ], [ [ 110.57365736573658, -6.750600060006001 ], [ 110.574182418241818, -6.750525052505259 ], [ 110.574182418241818, -6.750600060005997 ], [ 110.57365736573658, -6.750600060006001 ] ], [ [ 110.572982298229817, -6.750675067506752 ], [ 110.57343234323433, -6.750600060006001 ], [ 110.57343234323433, -6.750675067506757 ], [ 110.572982298229817, -6.750675067506752 ] ], [ [ 110.564506450645069, -6.750750075007497 ], [ 110.56458145814581, -6.750675067506758 ], [ 110.56458145814581, -6.750750075007502 ], [ 110.564506450645069, -6.750750075007497 ] ], [ [ 110.571557155715567, -6.750900090008997 ], [ 110.571932193219325, -6.750825082508246 ], [ 110.571932193219325, -6.750900090009007 ], [ 110.571557155715567, -6.750900090008997 ] ], [ [ 110.571482148214827, -6.750975097509745 ], [ 110.571557155715567, -6.750900090008997 ], [ 110.571557155715567, -6.750975097509745 ], [ 110.571482148214827, -6.750975097509745 ] ], [ [ 110.560906090609066, -6.751800180017999 ], [ 110.561431143114305, -6.751500150015004 ], [ 110.56150615061506, -6.752025202520247 ], [ 110.560906090609066, -6.751800180017999 ] ], [ [ 110.560531053105308, -6.753450345034508 ], [ 110.560831083108312, -6.753150315031513 ], [ 110.560981098109806, -6.753600360036002 ], [ 110.560531053105308, -6.753450345034508 ] ], [ [ 110.560306030603059, -6.753825382538249 ], [ 110.560681068106817, -6.753600360036001 ], [ 110.560606060606062, -6.754050405040494 ], [ 110.560306030603059, -6.753825382538249 ] ], [ [ 110.561806180618063, -6.75480048004801 ], [ 110.561731173117323, -6.754200420041998 ], [ 110.562181218121808, -6.75487548754875 ], [ 110.561806180618063, -6.75480048004801 ] ], [ [ 110.556630663066301, -6.754425442544253 ], [ 110.55685568556855, -6.754425442544254 ], [ 110.556630663066301, -6.754575457545751 ], [ 110.556630663066301, -6.754425442544253 ] ], [ [ 110.556630663066301, -6.754875487548764 ], [ 110.556705670567055, -6.754725472547253 ], [ 110.556780678067824, -6.754875487548753 ], [ 110.556630663066301, -6.754875487548764 ] ], [ [ 110.561881188118818, -6.755850585058505 ], [ 110.562331233123317, -6.755700570056999 ], [ 110.562331233123317, -6.755850585058512 ], [ 110.561881188118818, -6.755850585058505 ] ], [ [ 110.563681368136812, -6.756075607560758 ], [ 110.563756375637567, -6.756000600060013 ], [ 110.563756375637567, -6.756075607560756 ], [ 110.563681368136812, -6.756075607560758 ] ], [ [ 110.560681068106817, -6.756600660066002 ], [ 110.561056105610575, -6.756300630063015 ], [ 110.560981098109806, -6.756675667566753 ], [ 110.560681068106817, -6.756600660066002 ] ], [ [ 110.561731173117323, -6.756975697569764 ], [ 110.562481248124811, -6.756300630063011 ], [ 110.562481248124811, -6.756600660066008 ], [ 110.561731173117323, -6.756975697569764 ] ], [ [ 110.567356735673584, -6.757275727572755 ], [ 110.567506750675065, -6.757050705070509 ], [ 110.567506750675065, -6.757275727572758 ], [ 110.567356735673584, -6.757275727572755 ] ], [ [ 110.567506750675065, -6.757575757575752 ], [ 110.56758175817582, -6.757500750074999 ], [ 110.56758175817582, -6.75757575757575 ], [ 110.567506750675065, -6.757575757575752 ] ], [ [ 110.567431743174311, -6.757875787578754 ], [ 110.567506750675065, -6.757800780078007 ], [ 110.567506750675065, -6.757875787578749 ], [ 110.567431743174311, -6.757875787578754 ] ] ] } },
{ "type": "Feature", "properties": { "year": 2050, "layer": "flooded" }, "geometry": { "type": "Polygon", "coordinates": [ [ [ 110.542004200420038, -6.753600360036001 ], [ 110.540729072907297, -6.754725472547252 ], [ 110.540429042904293, -6.755550555055512 ], [ 110.541629162916294, -6.755550555055506 ], [ 110.541479147914785, -6.756675667566755 ], [ 110.54462946294629, -6.75892589258925 ], [ 110.541779177917789, -6.75547554755476 ], [ 110.540579057905802, -6.75547554755475 ], [ 110.542379237923797, -6.753825382538259 ], [ 110.545079507950788, -6.758850885088517 ], [ 110.545754575457551, -6.757875787578753 ], [ 110.548754875487546, -6.758775877587755 ], [ 110.547029702970292, -6.760351035103507 ], [ 110.549879987998793, -6.762301230123014 ], [ 110.553855385538554, -6.762076207620768 ], [ 110.552805280528062, -6.760051005100514 ], [ 110.550405040504046, -6.762076207620765 ], [ 110.551530153015307, -6.759975997599753 ], [ 110.550180018001797, -6.759150915091503 ], [ 110.554305430543053, -6.759825982598254 ], [ 110.554455445544562, -6.760651065106511 ], [ 110.560831083108312, -6.759000900090007 ], [ 110.558955895589563, -6.759900990099005 ], [ 110.557680768076807, -6.762226222622259 ], [ 110.559705970597065, -6.759825982598253 ], [ 110.559930993099314, -6.760726072607258 ], [ 110.560756075607557, -6.760426042604256 ], [ 110.560981098109806, -6.758775877587754 ], [ 110.555955595559553, -6.760051005100505 ], [ 110.54627962796279, -6.758025802580263 ], [ 110.542604260426046, -6.753900390039004 ], [ 110.542004200420038, -6.753600360036001 ] ], [ [ 110.544104410441051, -6.756225622562265 ], [ 110.544179417941791, -6.756150615061498 ], [ 110.544179417941791, -6.756225622562249 ], [ 110.544104410441051, -6.756225622562265 ] ], [ [ 110.545079507950788, -6.757350735073499 ], [ 110.544779477947799, -6.756600660066013 ], [ 110.545379537953792, -6.757500750075009 ], [ 110.545079507950788, -6.757350735073499 ] ], [ [ 110.549279927992799, -6.760126012601267 ], [ 110.5504800480048, -6.759975997599752 ], [ 110.550105010501056, -6.760651065106503 ], [ 110.549279927992799, -6.760126012601267 ] ], [ [ 110.559930993099314, -6.760126012601254 ], [ 110.560606060606062, -6.760276027602768 ], [ 110.560081008100823, -6.760501050105015 ], [ 110.559930993099314, -6.760126012601254 ] ], [ [ 110.549429942994294, -6.760726072607254 ], [ 110.549579957995803, -6.760576057605767 ], [ 110.549579957995803, -6.760801080108007 ], [ 110.549429942994294, -6.760726072607254 ] ], [ [ 110.54905490549055, -6.761476147614756 ], [ 110.549579957995803, -6.761026102610256 ], [ 110.549879987998793, -6.761251125112502 ], [ 110.54905490549055, -6.761476147614756 ] ], [ [ 110.551830183018296, -6.761776177617757 ], [ 110.552130213021314, -6.761926192619265 ], [ 110.551830183018296, -6.761926192619256 ], [ 110.551830183018296, -6.761776177617757 ] ] ] } }
]
}
