{
"type": "FeatureCollection",
"name": "flooded_2038",
"crs": { "type": "name", "properties": { "name": "urn:ogc:def:crs:OGC:1.3:CRS84" } },
"features": [
{ "type": "Feature", "properties": { "year": 2038, "layer": "flooded" }, "geometry": { "type": "Polygon", "coordinates": [ [ [ 110.539978997899794, -6.75 ], [ 110.540729072907297, -6.751650165016497 ], [ 110.541779177917789, -6.753075307530748 ], [ 110.541404140414045, -6.753675367536754 ], [ 110.541479147914785, -6.753825382538261 ], [ 110.541854185418543, -6.753000300030007 ], [ 110.539978997899794, -6.75 ] ] ] } },
{ "type": "Feature", "properties": { "year": 2038, "layer": "flooded" }, "geometry": { "type": "Polygon", "coordinates": [ [ [ 110.540504050405048, -6.75 ], [ 110.541704170417049, -6.752700270027002 ], [ 110.546204620462063, -6.757575757575755 ], [ 110.554380438043808, -6.759150915091516 ], [ 110.556030603060307, -6.759075907590756 ], [ 110.555805580558072, -6.758475847584766 ], [ 110.553855385538554, -6.758550855085504 ], [ 110.555355535553559, -6.758250825082512 ], [ 110.554755475547552, -6.75712571257125 ], [ 110.553030303030297, -6.757125712571262 ], [ 110.552580258025799, -6.758400840084012 ], [ 110.551005100510054, -6.756075607560754 ], [ 110.550405040504046, -6.7558505850585 ], [ 110.550180018001797, -6.75637563756375 ], [ 110.552880288028803, -6.758700870087018 ], [ 110.54627962796279, -6.757500750075 ], [ 110.540504050405048, -6.75 ] ], [ [ 110.553180318031806, -6.757200720072015 ], [ 110.554680468046811, -6.757275727572753 ], [ 110.554980498049801, -6.75795079507951 ], [ 110.553480348034824, -6.758100810081002 ], [ 110.553180318031806, -6.757200720072015 ] ], [ [ 110.553405340534056, -6.758625862586258 ], [ 110.55370537053706, -6.758325832583265 ], [ 110.55370537053706, -6.758700870087012 ], [ 110.553405340534056, -6.758625862586258 ] ], [ [ 110.555280528052805, -6.758925892589252 ], [ 110.555730573057303, -6.758625862586255 ], [ 110.555880588058812, -6.758925892589258 ], [ 110.555280528052805, -6.758925892589252 ] ], [ [ 110.554755475547552, -6.759075907590764 ], [ 110.554980498049801, -6.7588508850885 ], [ 110.555055505550555, -6.759000900090014 ], [ 110.554755475547552, -6.759075907590764 ] ] ] } },
{ "type": "Feature", "properties": { "year": 2038, "layer": "flooded" }, "geometry": { "type": "Polygon", "coordinates": [ [ [ 110.562106210621067, -6.75 ], [ 110.559780978097805, -6.751950195019496 ], [ 110.560681068106817, -6.754050405040494 ], [ 110.559330933093307, -6.752625262526249 ], [ 110.558430843084324, -6.755175517551748 ], [ 110.557080708070814, -6.754500450045003 ], [ 110.55655565556556, -6.754950495049513 ], [ 110.55685568556855, -6.753900390039011 ], [ 110.556255625562557, -6.754650465046497 ], [ 110.556480648064806, -6.755100510051001 ], [ 110.558280828082815, -6.755400540054008 ], [ 110.559555955595556, -6.754425442544253 ], [ 110.559555955595556, -6.753225322532258 ], [ 110.560456045604568, -6.75427542754276 ], [ 110.561131113111315, -6.753900390038995 ], [ 110.561431143114305, -6.75247524752476 ], [ 110.56150615061506, -6.75382538253826 ], [ 110.560981098109806, -6.754575457545755 ], [ 110.561731173117323, -6.75547554755475 ], [ 110.55985598559856, -6.755550555055509 ], [ 110.558955895589563, -6.756300630063015 ], [ 110.559630963096311, -6.757050705070513 ], [ 110.561581158115814, -6.757200720072006 ], [ 110.56150615061506, -6.761326132613259 ], [ 110.564431443144315, -6.76147614761476 ], [ 110.564506450645069, -6.75982598259826 ], [ 110.567431743174311, -6.757725772577258 ], [ 110.56593159315932, -6.755925592559258 ], [ 110.569531953195323, -6.752325232523254 ], [ 110.581908190819078, -6.750075007500755 ], [ 110.570582058205815, -6.751200120012001 ], [ 110.56458145814581, -6.756300630063003 ], [ 110.561806180618063, -6.757425742574255 ], [ 110.563306330633068, -6.756450645064501 ], [ 110.561581158115814, -6.756900690069013 ], [ 110.562406240624057, -6.755175517551759 ], [ 110.56150615061506, -6.754125412541247 ], [ 110.564131413141311, -6.756075607560749 ], [ 110.566681668166822, -6.753075307530748 ], [ 110.562106210621067, -6.75 ] ], [ [ 110.560831083108312, -6.751800180018007 ], [ 110.561881188118818, -6.751650165016501 ], [ 110.561581158115814, -6.752100210020999 ], [ 110.560831083108312, -6.751800180018007 ] ], [ [ 110.559780978097805, -6.755775577557762 ], [ 110.560006000600055, -6.7558505850585 ], [ 110.559780978097805, -6.755925592559257 ], [ 110.559780978097805, -6.755775577557762 ] ], [ [ 110.560606060606062, -6.756525652565257 ], [ 110.561131113111315, -6.756375637563761 ], [ 110.561056105610575, -6.756675667566762 ], [ 110.560606060606062, -6.756525652565257 ] ], [ [ 110.559630963096311, -6.756825682568257 ], [ 110.560006000600055, -6.75660066006601 ], [ 110.560006000600055, -6.756675667566753 ], [ 110.559630963096311, -6.756825682568257 ] ] ] } },
{ "type": "Feature", "properties": { "year": 2038, "layer": "flooded" }, "geometry": { "type": "Polygon", "coordinates": [ [ [ 110.542304230423042, -6.753600360036002 ], [ 110.540729072907297, -6.754725472547252 ], [ 110.540429042904293, -6.755550555055512 ], [ 110.541629162916294, -6.755550555055506 ], [ 110.541479147914785, -6.756675667566755 ], [ 110.54462946294629, -6.75892589258925 ], [ 110.541854185418543, -6.7555505550555 ], [ 110.540579057905802, -6.75547554755475 ], [ 110.542304230423042, -6.753750375037508 ], [ 110.543729372937293, -6.755775577557752 ], [ 110.545604560456042, -6.757575757575756 ], [ 110.543054305430545, -6.756300630063012 ], [ 110.545079507950788, -6.758850885088517 ], [ 110.545754575457551, -6.757800780078011 ], [ 110.546354635463544, -6.758175817581754 ], [ 110.548754875487546, -6.758700870087011 ], [ 110.547029702970292, -6.760351035103507 ], [ 110.54905490549055, -6.761851185118513 ], [ 110.549579957995803, -6.760501050105017 ], [ 110.549879987998793, -6.762301230123014 ], [ 110.552655265526553, -6.762601260126003 ], [ 110.553780378037814, -6.761251125112512 ], [ 110.552655265526553, -6.760126012601257 ], [ 110.550405040504046, -6.762151215121519 ], [ 110.551455145514552, -6.759900990099017 ], [ 110.549804980498052, -6.759000900090013 ], [ 110.554680468046811, -6.760426042604256 ], [ 110.560756075607557, -6.758925892589266 ], [ 110.560606060606062, -6.76035103510351 ], [ 110.559705970597065, -6.759675967596753 ], [ 110.559405940594061, -6.761026102610264 ], [ 110.558430843084324, -6.760951095109512 ], [ 110.557755775577562, -6.762226222622256 ], [ 110.559480948094816, -6.761176117611758 ], [ 110.559705970597065, -6.759825982598253 ], [ 110.559930993099314, -6.760726072607258 ], [ 110.560756075607557, -6.760426042604256 ], [ 110.560981098109806, -6.758775877587754 ], [ 110.555955595559553, -6.760051005100505 ], [ 110.54627962796279, -6.758025802580263 ], [ 110.542604260426046, -6.753900390039004 ], [ 110.542304230423042, -6.753600360036002 ] ], [ [ 110.549204920492045, -6.760201020102017 ], [ 110.5504800480048, -6.759900990099011 ], [ 110.550180018001797, -6.760651065106519 ], [ 110.549204920492045, -6.760201020102017 ] ], [ [ 110.551830183018296, -6.761926192619256 ], [ 110.552205220522055, -6.761701170117014 ], [ 110.552055205520546, -6.762001200120017 ], [ 110.551830183018296, -6.761926192619256 ] ] ] } }
]
}
