{
"type": "FeatureCollection",
"name": "flooded_2033",
"crs": { "type": "name", "properties": { "name": "urn:ogc:def:crs:OGC:1.3:CRS84" } },
"features": [
{ "type": "Feature", "properties": { "year": 2033, "layer": "flooded" }, "geometry": { "type": "Polygon", "coordinates": [ [ [ 110.540579057905802, -6.750225022502246 ], [ 110.54155415541554, -6.752400240024005 ], [ 110.541704170417049, -6.752550255025501 ], [ 110.541629162916294, -6.752100210021006 ], [ 110.540579057905802, -6.750225022502246 ] ] ] } },
{ "type": "Feature", "properties": { "year": 2033, "layer": "flooded" }, "geometry": { "type": "Polygon", "coordinates": [ [ [ 110.540129012901289, -6.75 ], [ 110.540729072907297, -6.751650165016497 ], [ 110.541704170417049, -6.752925292529246 ], [ 110.540129012901289, -6.75 ] ] ] } },
{ "type": "Feature", "properties": { "year": 2033, "layer": "flooded" }, "geometry": { "type": "Polygon", "coordinates": [ [ [ 110.53990399039904, -6.753000300030005 ], [ 110.540429042904293, -6.754125412541246 ], [ 110.540579057905802, -6.754275427542761 ], [ 110.541029102910286, -6.754275427542747 ], [ 110.53990399039904, -6.753000300030005 ] ] ] } },
{ "type": "Feature", "properties": { "year": 2033, "layer": "flooded" }, "geometry": { "type": "Polygon", "coordinates": [ [ [ 110.554005400540049, -6.756450645064502 ], [ 110.554080408040804, -6.756300630063004 ], [ 110.553555355535551, -6.755925592559256 ], [ 110.553405340534056, -6.756000600060003 ], [ 110.554005400540049, -6.756450645064502 ] ] ] } },
{ "type": "Feature", "properties": { "year": 2033, "layer": "flooded" }, "geometry": { "type": "Polygon", "coordinates": [ [ [ 110.543354335433548, -6.753900390039001 ], [ 110.545679567956796, -6.757050705070503 ], [ 110.546354635463544, -6.757575757575761 ], [ 110.543354335433548, -6.753900390039001 ] ] ] } },
{ "type": "Feature", "properties": { "year": 2033, "layer": "flooded" }, "geometry": { "type": "Polygon", "coordinates": [ [ [ 110.551005100510054, -6.756075607560754 ], [ 110.550255025502551, -6.756375637563756 ], [ 110.552880288028803, -6.758700870087018 ], [ 110.548754875487546, -6.757125712571249 ], [ 110.546354635463544, -6.757650765076511 ], [ 110.554380438043808, -6.759150915091516 ], [ 110.556030603060307, -6.759075907590756 ], [ 110.555805580558072, -6.758475847584766 ], [ 110.553855385538554, -6.758550855085504 ], [ 110.555355535553559, -6.758250825082512 ], [ 110.554755475547552, -6.75712571257125 ], [ 110.553030303030297, -6.757125712571262 ], [ 110.552580258025799, -6.758400840084012 ], [ 110.551005100510054, -6.756075607560754 ] ], [ [ 110.55070507050705, -6.756300630062999 ], [ 110.550780078007804, -6.756225622562262 ], [ 110.550780078007804, -6.756300630063003 ], [ 110.55070507050705, -6.756300630062999 ] ], [ [ 110.553180318031806, -6.757200720072015 ], [ 110.554680468046811, -6.757275727572753 ], [ 110.555055505550555, -6.757950795079505 ], [ 110.553405340534056, -6.758700870087012 ], [ 110.553180318031806, -6.757200720072015 ] ], [ [ 110.55520552055205, -6.758925892589259 ], [ 110.555805580558072, -6.758625862586261 ], [ 110.555880588058812, -6.758925892589258 ], [ 110.55520552055205, -6.758925892589259 ] ], [ [ 110.554680468046811, -6.75907590759076 ], [ 110.555055505550555, -6.758850885088507 ], [ 110.555130513051324, -6.759000900090002 ], [ 110.554680468046811, -6.75907590759076 ] ] ] } },
{ "type": "Feature", "properties": { "year": 2033, "layer": "flooded" }, "geometry": { "type": "Polygon", "coordinates": [ [ [ 110.562106210621067, -6.75 ], [ 110.559780978097805, -6.751950195019496 ], [ 110.560606060606062, -6.754125412541245 ], [ 110.560006000600055, -6.753075307530759 ], [ 110.559330933093307, -6.752625262526249 ], [ 110.558580858085804, -6.755100510051003 ], [ 110.557380738073803, -6.754575457545752 ], [ 110.55655565556556, -6.754950495049513 ], [ 110.55685568556855, -6.753900390039011 ], [ 110.556255625562557, -6.754650465046497 ], [ 110.556480648064806, -6.755100510051001 ], [ 110.558280828082815, -6.755400540054008 ], [ 110.559555955595556, -6.754425442544253 ], [ 110.559555955595556, -6.753225322532258 ], [ 110.560456045604568, -6.75427542754276 ], [ 110.561131113111315, -6.753900390038995 ], [ 110.561431143114305, -6.75247524752476 ], [ 110.56150615061506, -6.75382538253826 ], [ 110.560981098109806, -6.754575457545755 ], [ 110.561731173117323, -6.75547554755475 ], [ 110.55985598559856, -6.755550555055509 ], [ 110.558955895589563, -6.756300630063015 ], [ 110.559630963096311, -6.757050705070513 ], [ 110.561581158115814, -6.757200720072006 ], [ 110.56150615061506, -6.761326132613259 ], [ 110.564431443144315, -6.76147614761476 ], [ 110.564506450645069, -6.7597509750975 ], [ 110.567356735673584, -6.757800780078004 ], [ 110.565856585658565, -6.756000600060009 ], [ 110.568781878187821, -6.752775277527752 ], [ 110.581833183318338, -6.750075007500751 ], [ 110.570282028202826, -6.751350135013501 ], [ 110.564506450645069, -6.756375637563757 ], [ 110.561881188118818, -6.757500750075005 ], [ 110.563231323132314, -6.756300630063002 ], [ 110.56150615061506, -6.756825682568255 ], [ 110.562331233123317, -6.755250525052501 ], [ 110.56150615061506, -6.754125412541247 ], [ 110.564056405640585, -6.756075607560759 ], [ 110.566606660666068, -6.75315031503151 ], [ 110.562106210621067, -6.75 ] ], [ [ 110.561131113111315, -6.752100210020993 ], [ 110.561956195619558, -6.751650165016499 ], [ 110.561956195619558, -6.751800180017993 ], [ 110.561131113111315, -6.752100210020993 ] ], [ [ 110.559705970597065, -6.755775577557759 ], [ 110.560006000600055, -6.75592559255926 ], [ 110.559705970597065, -6.75592559255926 ], [ 110.559705970597065, -6.755775577557759 ] ], [ [ 110.560531053105308, -6.756375637563751 ], [ 110.561131113111315, -6.756300630063008 ], [ 110.560981098109806, -6.7567506750675 ], [ 110.560531053105308, -6.756375637563751 ] ], [ [ 110.559630963096311, -6.756825682568257 ], [ 110.560006000600055, -6.756525652565257 ], [ 110.560081008100823, -6.756675667566756 ], [ 110.559630963096311, -6.756825682568257 ] ] ] } },
{ "type": "Feature", "properties": { "year": 2033, "layer": "flooded" }, "geometry": { "type": "Polygon", "coordinates": [ [ [ 110.542304230423042, -6.753600360036002 ], [ 110.540729072907297, -6.754725472547252 ], [ 110.540429042904293, -6.755550555055512 ], [ 110.541629162916294, -6.755550555055506 ], [ 110.541479147914785, -6.756675667566755 ], [ 110.541704170417049, -6.756900690069002 ], [ 110.542454245424537, -6.756750675067512 ], [ 110.542454245424537, -6.757350735073508 ], [ 110.542679267926786, -6.757575757575758 ], [ 110.544254425442546, -6.758400840084003 ], [ 110.541629162916294, -6.755400540053999 ], [ 110.540579057905802, -6.75547554755475 ], [ 110.542304230423042, -6.753750375037508 ], [ 110.543654365436538, -6.755625562556247 ], [ 110.545529552955301, -6.757425742574266 ], [ 110.543054305430545, -6.756300630063012 ], [ 110.545004500450048, -6.758775877587768 ], [ 110.545829582958291, -6.757800780078001 ], [ 110.546129612961295, -6.758100810081012 ], [ 110.548829882988301, -6.758775877587757 ], [ 110.547029702970292, -6.760276027602761 ], [ 110.548604860486051, -6.761776177617754 ], [ 110.549354935493554, -6.76170117011701 ], [ 110.549204920492045, -6.759675967596765 ], [ 110.5504800480048, -6.759900990099011 ], [ 110.549729972997298, -6.762226222622263 ], [ 110.552655265526553, -6.762601260126003 ], [ 110.553780378037814, -6.761701170117011 ], [ 110.552730273027308, -6.760126012601259 ], [ 110.550330033003306, -6.76215121512151 ], [ 110.551455145514552, -6.759900990099017 ], [ 110.549729972997298, -6.75900090009001 ], [ 110.554755475547552, -6.760351035103501 ], [ 110.554680468046811, -6.759900990099011 ], [ 110.556255625562557, -6.760201020102003 ], [ 110.560831083108312, -6.758925892589265 ], [ 110.560606060606062, -6.76035103510351 ], [ 110.559705970597065, -6.759675967596753 ], [ 110.559405940594061, -6.761026102610264 ], [ 110.558355835583555, -6.761026102610254 ], [ 110.557755775577562, -6.762226222622256 ], [ 110.559480948094816, -6.761176117611758 ], [ 110.559705970597065, -6.759825982598253 ], [ 110.559930993099314, -6.760726072607258 ], [ 110.560756075607557, -6.760426042604256 ], [ 110.560981098109806, -6.758775877587754 ], [ 110.555955595559553, -6.760051005100505 ], [ 110.54627962796279, -6.758025802580263 ], [ 110.542604260426046, -6.753900390039004 ], [ 110.542304230423042, -6.753600360036002 ] ], [ [ 110.549129912991305, -6.758925892589256 ], [ 110.549204920492045, -6.758850885088516 ], [ 110.549204920492045, -6.758925892589263 ], [ 110.549129912991305, -6.758925892589256 ] ], [ [ 110.548979897989796, -6.760501050105018 ], [ 110.54905490549055, -6.760351035103503 ], [ 110.54905490549055, -6.760501050105013 ], [ 110.548979897989796, -6.760501050105018 ] ], [ [ 110.550930093009299, -6.760651065106517 ], [ 110.551005100510054, -6.760576057605763 ], [ 110.551005100510054, -6.760651065106515 ], [ 110.550930093009299, -6.760651065106517 ] ], [ [ 110.548829882988301, -6.760876087608759 ], [ 110.548904890489055, -6.760651065106515 ], [ 110.548904890489055, -6.760876087608762 ], [ 110.548829882988301, -6.760876087608759 ] ], [ [ 110.551830183018296, -6.761701170117017 ], [ 110.552205220522055, -6.761851185118517 ], [ 110.551830183018296, -6.762001200120015 ], [ 110.551830183018296, -6.761701170117017 ] ] ] } }
]
}
