{
"type": "FeatureCollection",
"name": "flooded_2025",
"crs": { "type": "name", "properties": { "name": "urn:ogc:def:crs:OGC:1.3:CRS84" } },
"features": [
{ "type": "Feature", "properties": { "year": 2025, "layer": "flooded" }, "geometry": { "type": "Polygon", "coordinates": [ [ [ 110.541929192919312, -6.755700570057013 ], [ 110.540429042904293, -6.755250525052505 ], [ 110.540504050405048, -6.755625562556252 ], [ 110.541779177917789, -6.755700570057007 ], [ 110.541479147914785, -6.756300630063005 ], [ 110.541479147914785, -6.756675667566755 ], [ 110.541704170417049, -6.756900690069002 ], [ 110.542454245424537, -6.756750675067512 ], [ 110.542454245424537, -6.757350735073508 ], [ 110.542679267926786, -6.757575757575758 ], [ 110.543879387938802, -6.758025802580259 ], [ 110.542529252925291, -6.756675667566755 ], [ 110.541704170417049, -6.756750675067508 ], [ 110.541929192919312, -6.755700570057013 ] ] ] } },
{ "type": "Feature", "properties": { "year": 2025, "layer": "flooded" }, "geometry": { "type": "Polygon", "coordinates": [ [ [ 110.550255025502551, -6.75585058505851 ], [ 110.552880288028803, -6.758775877587756 ], [ 110.549354935493554, -6.757425742574253 ], [ 110.546504650465053, -6.75772577257726 ], [ 110.554905490549061, -6.759225922592266 ], [ 110.556030603060307, -6.759075907590756 ], [ 110.555805580558072, -6.758475847584766 ], [ 110.553855385538554, -6.758550855085504 ], [ 110.555355535553559, -6.758250825082512 ], [ 110.555130513051324, -6.757575757575752 ], [ 110.554755475547552, -6.75712571257125 ], [ 110.553030303030297, -6.757125712571262 ], [ 110.552580258025799, -6.758400840084012 ], [ 110.550255025502551, -6.75585058505851 ] ], [ [ 110.553105310531052, -6.757200720071999 ], [ 110.554755475547552, -6.757275727572757 ], [ 110.555055505550555, -6.758025802580259 ], [ 110.553030303030297, -6.758775877587756 ], [ 110.553105310531052, -6.757200720071999 ] ], [ [ 110.555280528052805, -6.758850885088503 ], [ 110.555880588058812, -6.759000900090013 ], [ 110.554230423042299, -6.75892589258925 ], [ 110.555280528052805, -6.758850885088503 ] ] ] } },
{ "type": "Feature", "properties": { "year": 2025, "layer": "flooded" }, "geometry": { "type": "Polygon", "coordinates": [ [ [ 110.562106210621067, -6.75 ], [ 110.559780978097805, -6.751950195019496 ], [ 110.560681068106817, -6.754125412541258 ], [ 110.559330933093307, -6.752625262526249 ], [ 110.558355835583555, -6.755250525052501 ], [ 110.557155715571554, -6.75457545754576 ], [ 110.55655565556556, -6.754950495049513 ], [ 110.55685568556855, -6.753900390039011 ], [ 110.556255625562557, -6.754500450044996 ], [ 110.556480648064806, -6.755100510051001 ], [ 110.558280828082815, -6.755400540054008 ], [ 110.559555955595556, -6.753225322532258 ], [ 110.560456045604568, -6.75427542754276 ], [ 110.561131113111315, -6.753900390038995 ], [ 110.561431143114305, -6.75247524752476 ], [ 110.56150615061506, -6.75382538253826 ], [ 110.560981098109806, -6.754575457545755 ], [ 110.561731173117323, -6.75547554755475 ], [ 110.55985598559856, -6.755550555055509 ], [ 110.558955895589563, -6.756300630063015 ], [ 110.559630963096311, -6.757050705070513 ], [ 110.561581158115814, -6.757200720072006 ], [ 110.56150615061506, -6.761326132613259 ], [ 110.564431443144315, -6.761251125112503 ], [ 110.564431443144315, -6.759825982598252 ], [ 110.567281728172816, -6.757800780078004 ], [ 110.566606660666068, -6.756225622562257 ], [ 110.566156615661569, -6.756450645064506 ], [ 110.565781578157811, -6.756375637563758 ], [ 110.565481548154821, -6.756600660066005 ], [ 110.565331533153312, -6.756525652565259 ], [ 110.569456945694569, -6.752325232523256 ], [ 110.580933093309326, -6.750075007500751 ], [ 110.570657065706584, -6.751275127512758 ], [ 110.56458145814581, -6.756375637563759 ], [ 110.561806180618063, -6.757500750075009 ], [ 110.562481248124811, -6.756750675067505 ], [ 110.561356135613565, -6.756750675067503 ], [ 110.562106210621067, -6.7555505550555 ], [ 110.561431143114305, -6.754125412541247 ], [ 110.564131413141311, -6.756000600060006 ], [ 110.566531653165313, -6.753150315031499 ], [ 110.562106210621067, -6.75 ] ], [ [ 110.560981098109806, -6.752100210021 ], [ 110.561956195619558, -6.751650165016499 ], [ 110.561956195619558, -6.751875187518759 ], [ 110.560981098109806, -6.752100210021 ] ], [ [ 110.563156315631559, -6.752025202520244 ], [ 110.563231323132314, -6.751950195019494 ], [ 110.563231323132314, -6.752025202520247 ], [ 110.563156315631559, -6.752025202520244 ] ], [ [ 110.563081308130833, -6.752100210020999 ], [ 110.563156315631559, -6.752025202520244 ], [ 110.563156315631559, -6.752100210020996 ], [ 110.563081308130833, -6.752100210020999 ] ], [ [ 110.559705970597065, -6.756000600060003 ], [ 110.560006000600055, -6.755700570057003 ], [ 110.560081008100823, -6.755925592559261 ], [ 110.559705970597065, -6.756000600060003 ] ], [ [ 110.560756075607557, -6.756750675067502 ], [ 110.561131113111315, -6.756225622562258 ], [ 110.561206120612056, -6.756675667566756 ], [ 110.560756075607557, -6.756750675067502 ] ], [ [ 110.559630963096311, -6.756900690069004 ], [ 110.560081008100823, -6.75652565256525 ], [ 110.560081008100823, -6.756750675067503 ], [ 110.559630963096311, -6.756900690069004 ] ], [ [ 110.565031503150323, -6.756825682568262 ], [ 110.565256525652572, -6.756975697569763 ], [ 110.56428142814282, -6.757275727572751 ], [ 110.565031503150323, -6.756825682568262 ] ], [ [ 110.562556255625566, -6.758100810081009 ], [ 110.564131413141311, -6.757725772577261 ], [ 110.562481248124811, -6.758250825082509 ], [ 110.562556255625566, -6.758100810081009 ] ], [ [ 110.563381338133823, -6.760576057605754 ], [ 110.563606360636058, -6.760651065106509 ], [ 110.563381338133823, -6.760651065106515 ], [ 110.563381338133823, -6.760576057605754 ] ], [ [ 110.56428142814282, -6.760801080108018 ], [ 110.564356435643575, -6.760726072607253 ], [ 110.564356435643575, -6.760801080108019 ], [ 110.56428142814282, -6.760801080108018 ] ] ] } },
{ "type": "Feature", "properties": { "year": 2025, "layer": "flooded" }, "geometry": { "type": "Polygon", "coordinates": [ [ [ 110.547179717971801, -6.758250825082506 ], [ 110.548829882988301, -6.758700870087016 ], [ 110.547104710471046, -6.760126012601269 ], [ 110.548604860486051, -6.761776177617754 ], [ 110.549804980498052, -6.759525952595256 ], [ 110.549654965496543, -6.762151215121503 ], [ 110.552580258025799, -6.762601260126004 ], [ 110.55370537053706, -6.761176117611756 ], [ 110.552730273027308, -6.760201020102009 ], [ 110.550330033003306, -6.76215121512151 ], [ 110.551455145514552, -6.75997599759976 ], [ 110.549729972997298, -6.758925892589256 ], [ 110.551980198019805, -6.759525952595266 ], [ 110.554155415541572, -6.759750975097508 ], [ 110.554530453045302, -6.759975997599759 ], [ 110.555580558055809, -6.759900990099013 ], [ 110.556255625562557, -6.760201020102003 ], [ 110.560831083108312, -6.758925892589265 ], [ 110.560606060606062, -6.760426042604258 ], [ 110.559705970597065, -6.759675967596753 ], [ 110.559405940594061, -6.761026102610264 ], [ 110.558430843084324, -6.761026102610264 ], [ 110.557755775577562, -6.762226222622256 ], [ 110.559480948094816, -6.761176117611758 ], [ 110.559705970597065, -6.759825982598253 ], [ 110.560606060606062, -6.760651065106508 ], [ 110.561056105610575, -6.759150915091515 ], [ 110.560981098109806, -6.758775877587754 ], [ 110.560681068106817, -6.758775877587755 ], [ 110.555955595559553, -6.760051005100505 ], [ 110.555505550555054, -6.759750975097508 ], [ 110.547179717971801, -6.758250825082506 ] ], [ [ 110.54905490549055, -6.758925892589255 ], [ 110.549204920492045, -6.758775877587759 ], [ 110.549354935493554, -6.758925892589254 ], [ 110.54905490549055, -6.758925892589255 ] ], [ [ 110.551755175517556, -6.761851185118506 ], [ 110.552205220522055, -6.761926192619255 ], [ 110.551830183018296, -6.762001200120015 ], [ 110.551755175517556, -6.761851185118506 ] ] ] } }
]
}
