{
"type": "FeatureCollection",
"name": "flooded_2028",
"crs": { "type": "name", "properties": { "name": "urn:ogc:def:crs:OGC:1.3:CRS84" } },
"features": [
{ "type": "Feature", "properties": { "year": 2028, "layer": "flooded" }, "geometry": { "type": "Polygon", "coordinates": [ [ [ 110.541029102910286, -6.750900090008994 ], [ 110.540579057905802, -6.750375037503747 ], [ 110.541404140414045, -6.75187518751875 ], [ 110.541029102910286, -6.750900090008994 ] ] ] } },
{ "type": "Feature", "properties": { "year": 2028, "layer": "flooded" }, "geometry": { "type": "Polygon", "coordinates": [ [ [ 110.540879087908792, -6.7516501650165 ], [ 110.540204020402044, -6.750675067506752 ], [ 110.541704170417049, -6.752925292529246 ], [ 110.540879087908792, -6.7516501650165 ] ] ] } },
{ "type": "Feature", "properties": { "year": 2028, "layer": "flooded" }, "geometry": { "type": "Polygon", "coordinates": [ [ [ 110.53990399039904, -6.753000300030005 ], [ 110.540429042904293, -6.754125412541246 ], [ 110.540579057905802, -6.754275427542761 ], [ 110.541029102910286, -6.754275427542747 ], [ 110.53990399039904, -6.753000300030005 ] ] ] } },
{ "type": "Feature", "properties": { "year": 2028, "layer": "flooded" }, "geometry": { "type": "Polygon", "coordinates": [ [ [ 110.543279327932794, -6.753975397539752 ], [ 110.543954395439542, -6.755025502550247 ], [ 110.544854485448553, -6.755925592559254 ], [ 110.544704470447044, -6.755550555055506 ], [ 110.543279327932794, -6.753975397539752 ] ] ] } },
{ "type": "Feature", "properties": { "year": 2028, "layer": "flooded" }, "geometry": { "type": "Polygon", "coordinates": [ [ [ 110.554755475547552, -6.756150615061498 ], [ 110.554155415541572, -6.756300630063 ], [ 110.55370537053706, -6.756300630063008 ], [ 110.553630363036305, -6.756000600060005 ], [ 110.553555355535551, -6.755925592559256 ], [ 110.553405340534056, -6.756000600060003 ], [ 110.55370537053706, -6.756450645064503 ], [ 110.554005400540049, -6.756450645064502 ], [ 110.554755475547552, -6.756150615061498 ] ] ] } },
{ "type": "Feature", "properties": { "year": 2028, "layer": "flooded" }, "geometry": { "type": "Polygon", "coordinates": [ [ [ 110.542304230423042, -6.753600360036002 ], [ 110.540729072907297, -6.754725472547252 ], [ 110.540429042904293, -6.755250525052505 ], [ 110.540504050405048, -6.755625562556252 ], [ 110.541779177917789, -6.755700570057007 ], [ 110.541479147914785, -6.756300630063005 ], [ 110.541479147914785, -6.756675667566755 ], [ 110.541704170417049, -6.756900690069002 ], [ 110.542454245424537, -6.756750675067512 ], [ 110.542454245424537, -6.757350735073508 ], [ 110.542679267926786, -6.757575757575758 ], [ 110.543879387938802, -6.758025802580259 ], [ 110.541704170417049, -6.755475547554763 ], [ 110.540504050405048, -6.755400540054009 ], [ 110.542304230423042, -6.753750375037508 ], [ 110.543279327932794, -6.755175517551754 ], [ 110.545754575457551, -6.757800780078011 ], [ 110.546429642964299, -6.758175817581757 ], [ 110.546879687968811, -6.758175817581751 ], [ 110.546129612961295, -6.757950795079509 ], [ 110.542604260426046, -6.753900390039004 ], [ 110.542304230423042, -6.753600360036002 ] ] ] } },
{ "type": "Feature", "properties": { "year": 2028, "layer": "flooded" }, "geometry": { "type": "Polygon", "coordinates": [ [ [ 110.551005100510054, -6.756075607560754 ], [ 110.550405040504046, -6.756375637563758 ], [ 110.550855085508545, -6.75622562256226 ], [ 110.55070507050705, -6.756525652565261 ], [ 110.551155115511563, -6.75652565256526 ], [ 110.552205220522055, -6.758175817581767 ], [ 110.552955295529557, -6.758700870087015 ], [ 110.548904890489055, -6.757350735073497 ], [ 110.546354635463544, -6.757650765076511 ], [ 110.554380438043808, -6.759150915091516 ], [ 110.556030603060307, -6.759075907590756 ], [ 110.555805580558072, -6.758475847584766 ], [ 110.553855385538554, -6.758550855085504 ], [ 110.555355535553559, -6.758250825082512 ], [ 110.554755475547552, -6.75712571257125 ], [ 110.553030303030297, -6.757125712571262 ], [ 110.552580258025799, -6.758400840084012 ], [ 110.551005100510054, -6.756075607560754 ] ], [ [ 110.553105310531052, -6.757200720071999 ], [ 110.554755475547552, -6.757275727572757 ], [ 110.555055505550555, -6.757950795079505 ], [ 110.553105310531052, -6.758775877587755 ], [ 110.553105310531052, -6.757200720071999 ] ], [ [ 110.555280528052805, -6.758850885088503 ], [ 110.555880588058812, -6.759000900090013 ], [ 110.554305430543053, -6.758925892589252 ], [ 110.555280528052805, -6.758850885088503 ] ] ] } },
{ "type": "Feature", "properties": { "year": 2028, "layer": "flooded" }, "geometry": { "type": "Polygon", "coordinates": [ [ [ 110.562106210621067, -6.75 ], [ 110.559780978097805, -6.751950195019496 ], [ 110.560606060606062, -6.754125412541245 ], [ 110.559930993099314, -6.753000300029995 ], [ 110.559330933093307, -6.752625262526249 ], [ 110.558580858085804, -6.755100510051003 ], [ 110.557230723072308, -6.754575457545746 ], [ 110.55655565556556, -6.754950495049513 ], [ 110.55685568556855, -6.753900390039011 ], [ 110.556255625562557, -6.754500450044996 ], [ 110.556480648064806, -6.755100510051001 ], [ 110.558280828082815, -6.755400540054008 ], [ 110.559555955595556, -6.754425442544253 ], [ 110.559555955595556, -6.753225322532258 ], [ 110.560456045604568, -6.75427542754276 ], [ 110.561131113111315, -6.753900390038995 ], [ 110.561431143114305, -6.75247524752476 ], [ 110.56150615061506, -6.75382538253826 ], [ 110.560981098109806, -6.754575457545755 ], [ 110.561731173117323, -6.75547554755475 ], [ 110.55985598559856, -6.755550555055509 ], [ 110.558955895589563, -6.756300630063015 ], [ 110.559630963096311, -6.757050705070513 ], [ 110.561581158115814, -6.757200720072006 ], [ 110.56150615061506, -6.761326132613259 ], [ 110.564431443144315, -6.761251125112503 ], [ 110.564431443144315, -6.759825982598252 ], [ 110.567356735673584, -6.757725772577253 ], [ 110.565631563156316, -6.756300630063003 ], [ 110.569456945694569, -6.752325232523256 ], [ 110.581308130813085, -6.750075007500753 ], [ 110.570207020702071, -6.751425142514255 ], [ 110.564656465646564, -6.756300630063009 ], [ 110.561881188118818, -6.757500750075005 ], [ 110.562481248124811, -6.756750675067505 ], [ 110.561356135613565, -6.756675667566749 ], [ 110.562181218121808, -6.755475547554752 ], [ 110.561431143114305, -6.754125412541247 ], [ 110.564131413141311, -6.756000600060006 ], [ 110.566606660666068, -6.753075307530746 ], [ 110.562106210621067, -6.75 ] ], [ [ 110.561056105610575, -6.752100210021005 ], [ 110.561956195619558, -6.751650165016499 ], [ 110.561956195619558, -6.751875187518759 ], [ 110.561056105610575, -6.752100210021005 ] ], [ [ 110.559705970597065, -6.75592559255926 ], [ 110.560006000600055, -6.755700570057003 ], [ 110.560081008100823, -6.755850585058507 ], [ 110.559705970597065, -6.75592559255926 ] ], [ [ 110.560756075607557, -6.756750675067502 ], [ 110.561056105610575, -6.756225622562261 ], [ 110.561206120612056, -6.756600660066013 ], [ 110.560756075607557, -6.756750675067502 ] ], [ [ 110.559630963096311, -6.756900690069004 ], [ 110.560081008100823, -6.75652565256525 ], [ 110.560081008100823, -6.756750675067503 ], [ 110.559630963096311, -6.756900690069004 ] ], [ [ 110.565406540654067, -6.756525652565249 ], [ 110.565481548154821, -6.756450645064499 ], [ 110.565481548154821, -6.75652565256525 ], [ 110.565406540654067, -6.756525652565249 ] ], [ [ 110.565106510651063, -6.756750675067503 ], [ 110.565256525652572, -6.756900690069005 ], [ 110.565106510651063, -6.756900690069 ], [ 110.565106510651063, -6.756750675067503 ] ], [ [ 110.564656465646564, -6.757125712571256 ], [ 110.564956495649568, -6.756900690069007 ], [ 110.564881488148814, -6.757125712571262 ], [ 110.564656465646564, -6.757125712571256 ] ], [ [ 110.56458145814581, -6.757200720072001 ], [ 110.564656465646564, -6.757125712571256 ], [ 110.564656465646564, -6.757200720072012 ], [ 110.56458145814581, -6.757200720072001 ] ], [ [ 110.563456345634563, -6.757725772577264 ], [ 110.564131413141311, -6.757650765076503 ], [ 110.563456345634563, -6.757800780078013 ], [ 110.563456345634563, -6.757725772577264 ] ], [ [ 110.563156315631559, -6.757950795079503 ], [ 110.563306330633068, -6.757875787578767 ], [ 110.563306330633068, -6.757950795079513 ], [ 110.563156315631559, -6.757950795079503 ] ], [ [ 110.562556255625566, -6.758250825082511 ], [ 110.562781278127815, -6.758100810081011 ], [ 110.562781278127815, -6.758175817581751 ], [ 110.562556255625566, -6.758250825082511 ] ] ] } },
{ "type": "Feature", "properties": { "year": 2028, "layer": "flooded" }, "geometry": { "type": "Polygon", "coordinates": [ [ [ 110.546879687968811, -6.758175817581751 ], [ 110.548829882988301, -6.758775877587757 ], [ 110.547029702970292, -6.760276027602761 ], [ 110.548604860486051, -6.761776177617754 ], [ 110.549804980498052, -6.759525952595256 ], [ 110.549579957995803, -6.762076207620763 ], [ 110.552580258025799, -6.762601260126004 ], [ 110.55370537053706, -6.761176117611756 ], [ 110.552655265526553, -6.760201020102015 ], [ 110.550330033003306, -6.76215121512151 ], [ 110.551455145514552, -6.759900990099017 ], [ 110.549729972997298, -6.758925892589256 ], [ 110.551905190519051, -6.759525952595266 ], [ 110.556255625562557, -6.760201020102003 ], [ 110.560831083108312, -6.758925892589265 ], [ 110.560606060606062, -6.760426042604258 ], [ 110.559705970597065, -6.759675967596753 ], [ 110.559405940594061, -6.761026102610264 ], [ 110.558430843084324, -6.761026102610264 ], [ 110.557755775577562, -6.762226222622256 ], [ 110.559480948094816, -6.761176117611758 ], [ 110.559705970597065, -6.759825982598253 ], [ 110.560606060606062, -6.760651065106508 ], [ 110.561056105610575, -6.759150915091515 ], [ 110.560981098109806, -6.758775877587754 ], [ 110.560681068106817, -6.758775877587755 ], [ 110.555955595559553, -6.760051005100505 ], [ 110.546879687968811, -6.758175817581751 ] ], [ [ 110.54905490549055, -6.758925892589255 ], [ 110.549204920492045, -6.758775877587759 ], [ 110.549354935493554, -6.758925892589254 ], [ 110.54905490549055, -6.758925892589255 ] ], [ [ 110.548754875487546, -6.760726072607254 ], [ 110.549129912991305, -6.760501050105011 ], [ 110.548754875487546, -6.760876087608756 ], [ 110.548754875487546, -6.760726072607254 ] ], [ [ 110.550930093009299, -6.760651065106517 ], [ 110.551005100510054, -6.760501050105018 ], [ 110.551080108010808, -6.760651065106515 ], [ 110.550930093009299, -6.760651065106517 ] ], [ [ 110.551830183018296, -6.761701170117017 ], [ 110.552205220522055, -6.761926192619255 ], [ 110.551830183018296, -6.762001200120015 ], [ 110.551830183018296, -6.761701170117017 ] ] ] } }
]
}
